OBJECT C                
1 57582U 23117C   24154.19585999  .00006370  00000+0  33631-3 0  9996
2 57582  97.4872 226.4572 0010244 354.6811   5.4311 15.15825579 44913
